TIANLIAN 1-01           
1 32779U 08019A   17345.85674166 -.00000144  00000-0  10000-3 0  9993
2 32779   2.7397  75.3057 0037538 228.0378 165.7718  1.00274555 35294
